[{"id":"01F0005S","name":"基隆端(基隆港) 至 基隆(長庚醫院) 路段","highway":"國道1號","direction":"南下","location":{"lat":25.1187861,"lng":121.7317639},"region":"基隆市"},{"id":"01F0017S","name":"基隆(長庚醫院) 至 八堵 路段","highway":"國道1號","direction":"南下","location":{"lat":25.1095667,"lng":121.7259056},"region":"基隆市"},{"id":"01F0029S","name":"八堵 至 大華系統(連接台62) 路段","highway":"國道1號","direction":"南下","location":{"lat":25.1031111,"lng":121.7173694},"region":"基隆市"},{"id":"01F0061S","name":"大華系統(連接台62) 至 五堵 路段","highway":"國道1號","direction":"南下","location":{"lat":25.0883944,"lng":121.6934833},"region":"基隆市"},{"id":"01F0099S","name":"五堵 至 汐止&汐止系統(連接國3) 路段","highway":"國道1號","direction":"南下","location":{"lat":25.0762639,"lng":121.6594778},"region":"新北市"},{"id":"01F0147S","name":"汐止&汐止系統(連接國3) 至 東湖 路段","highway":"國道1號","direction":"南下","location":{"lat":25.0656444,"lng":121.6135194},"region":"台北市"},{"id":"01F0155S","name":"東湖 至 內湖(南京東、成功路) 路段","highway":"國道1號","direction":"南下","location":{"lat":25.0647528,"lng":121.6059028},"region":"台北市"},{"id":"01F0182S","name":"內湖(南京東、成功路) 至 圓山(建國北路) 路段","highway":"國道1號","direction":"南下","location":{"lat":25.0689861,"lng":121.5802306},"region":"台北市"},{"id":"01F0248S","name":"圓山(建國北路) 至 台北(重慶北、士林) 路段","highway":"國道1號","direction":"南下","location":{"lat":25.0776306,"lng":121.5166028},"region":"台北市"},{"id":"01F0264S","name":"台北(重慶北、士林) 至 三重 路段","highway":"國道1號","direction":"南下","location":{"lat":25.0774639,"lng":121.5013861},"region":"新北市"},{"id":"01F0293S","name":"三重 至 五股 路段","highway":"國道1號","direction":"南下","location":{"lat":25.0747972,"lng":121.4729611},"region":"新北市"},{"id":"01F0339S","name":"五股 至 高公局 路段","highway":"國道1號","direction":"南下","location":{"lat":25.068239,"lng":121.428764},"region":"新北市"},{"id":"01F0376S","name":"高公局 至 林口(文化一路) 路段","highway":"國道1號","direction":"南下","location":{"lat":25.058667,"lng":121.397306},"region":"新北市"},{"id":"01F0413S","name":"林口(文化一路) 至 林口(文化北路) 路段","highway":"國道1號","direction":"南下","location":{"lat":25.065081,"lng":121.363444},"region":"新北市"},{"id":"01F0467S","name":"林口(文化北路) 至 桃園 路段","highway":"國道1號","direction":"南下","location":{"lat":25.047075,"lng":121.317761},"region":"桃園市"},{"id":"01F0509S","name":"桃園 至 機場系統(連接國2) 路段","highway":"國道1號","direction":"南下","location":{"lat":25.027206,"lng":121.283072},"region":"桃園市"},{"id":"01F0532S","name":"機場系統(連接國2) 至 中壢服務區 路段","highway":"國道1號","direction":"南下","location":{"lat":25.012944,"lng":121.266194},"region":"桃園市"},{"id":"01F0557S","name":"中壢服務區 至 內壢 路段","highway":"國道1號","direction":"南下","location":{"lat":24.9985833,"lng":121.2477222},"region":"桃園市"},{"id":"01F0578S","name":"內壢 至 中壢 路段","highway":"國道1號","direction":"南下","location":{"lat":24.984414,"lng":121.233197},"region":"桃園市"},{"id":"01F0633S","name":"中壢 至 平鎮系統(連接台66) 路段","highway":"國道1號","direction":"南下","location":{"lat":24.949281,"lng":121.195594},"region":"桃園市"},{"id":"01F0664S","name":"平鎮系統(連接台66) 至 幼獅 路段","highway":"國道1號","direction":"南下","location":{"lat":24.929544,"lng":121.176919},"region":"桃園市"},{"id":"01F0681S","name":"幼獅 至 楊梅 路段","highway":"國道1號","direction":"南下","location":{"lat":24.917967,"lng":121.167586},"region":"桃園市"},{"id":"01F0750S","name":"楊梅 至 湖口 路段","highway":"國道1號","direction":"南下","location":{"lat":24.893436,"lng":121.111731},"region":"桃園市"},{"id":"01F0880S","name":"湖口 至 竹北 路段","highway":"國道1號","direction":"南下","location":{"lat":24.848719,"lng":121.019031},"region":"新竹縣"},{"id":"01F0928S","name":"竹北 至 新竹(光復路) 路段","highway":"國道1號","direction":"南下","location":{"lat":24.808453,"lng":121.010306},"region":"新竹市"},{"id":"01F0950S","name":"新竹(光復路) 至 新竹(科學園區) 路段","highway":"國道1號","direction":"南下","location":{"lat":24.789622,"lng":121.005247},"region":"新竹市"},{"id":"01F0980S","name":"新竹(科學園區) 至 新竹系統(連接國3) 路段","highway":"國道1號","direction":"南下","location":{"lat":24.763586,"lng":120.998861},"region":"新竹縣"},{"id":"01F1045S","name":"新竹系統(連接國3) 至 頭份 路段","highway":"國道1號","direction":"南下","location":{"lat":24.727131,"lng":120.951897},"region":"新竹縣"},{"id":"01F1123S","name":"頭份 至 頭屋 路段","highway":"國道1號","direction":"南下","location":{"lat":24.6793167,"lng":120.9042667},"region":"苗栗縣"},{"id":"01F1292S","name":"頭屋 至 苗栗 路段","highway":"國道1號","direction":"南下","location":{"lat":24.550442,"lng":120.838925},"region":"苗栗縣"},{"id":"01F1389S","name":"苗栗 至 銅鑼 路段","highway":"國道1號","direction":"南下","location":{"lat":24.485919,"lng":120.781903},"region":"苗栗縣"},{"id":"01F1465S","name":"銅鑼 至 三義 路段","highway":"國道1號","direction":"南下","location":{"lat":24.420514,"lng":120.775731},"region":"苗栗縣"},{"id":"01F1572S","name":"三義 至 后里 路段","highway":"國道1號","direction":"南下","location":{"lat":24.339147,"lng":120.72085},"region":"台中市"},{"id":"01F1621S","name":"后里 至 台中系統(連接國4) 路段","highway":"國道1號","direction":"南下","location":{"lat":24.301186,"lng":120.697325},"region":"台中市"},{"id":"01F1664S","name":"台中系統(連接國4) 至 豐原 路段","highway":"國道1號","direction":"南下","location":{"lat":24.262647,"lng":120.691956},"region":"台中市"},{"id":"01F1725S","name":"豐原 至 大雅 路段","highway":"國道1號","direction":"南下","location":{"lat":24.212956,"lng":120.671375},"region":"台中市"},{"id":"01F1774S","name":"大雅 至 台中(台灣大道) 路段","highway":"國道1號","direction":"南下","location":{"lat":24.184592,"lng":120.635611},"region":"台中市"},{"id":"01F1802S","name":"台中(台灣大道) 至 南屯 路段","highway":"國道1號","direction":"南下","location":{"lat":24.163706,"lng":120.621933},"region":"台中市"},{"id":"01F1839S","name":"南屯 至 王田 路段","highway":"國道1號","direction":"南下","location":{"lat":24.130767,"lng":120.617247},"region":"台中市"},{"id":"01F1906S","name":"王田 至 彰化系統(連接國3) 路段","highway":"國道1號","direction":"南下","location":{"lat":24.113572,"lng":120.568131},"region":"台中市"},{"id":"01F1960S","name":"彰化系統(連接國3) 至 彰化 路段","highway":"國道1號","direction":"南下","location":{"lat":24.085622,"lng":120.52785},"region":"彰化縣"},{"id":"01F2011S","name":"彰化 至 埔鹽系統(連接台76) 路段","highway":"國道1號","direction":"南下","location":{"lat":24.040639,"lng":120.522786},"region":"彰化縣"},{"id":"01F2089S","name":"埔鹽系統(連接台76) 至 員林 路段","highway":"國道1號","direction":"南下","location":{"lat":23.971794,"lng":120.506117},"region":"彰化縣"},{"id":"01F2156S","name":"員林 至 北斗 路段","highway":"國道1號","direction":"南下","location":{"lat":23.912769,"lng":120.49765},"region":"彰化縣"},{"id":"01F2249S","name":"北斗 至 西螺 路段","highway":"國道1號","direction":"南下","location":{"lat":23.830569,"lng":120.484881},"region":"彰化縣"},{"id":"01F2322S","name":"西螺 至 虎尾(斗六聯絡道) 路段","highway":"國道1號","direction":"南下","location":{"lat":23.766328,"lng":120.469342},"region":"雲林縣"},{"id":"01F2394S","name":"虎尾(斗六聯絡道) 至 斗南(158縣道) 路段","highway":"國道1號","direction":"南下","location":{"lat":23.702603,"lng":120.474917},"region":"雲林縣"},{"id":"01F2425S","name":"斗南(158縣道) 至 雲林系統(連接台78) 路段","highway":"國道1號","direction":"南下","location":{"lat":23.677375,"lng":120.462281},"region":"雲林縣"},{"id":"01F2483S","name":"雲林系統(連接台78) 至 大林 路段","highway":"國道1號","direction":"南下","location":{"lat":23.629158,"lng":120.440264},"region":"雲林縣"},{"id":"01F2514S","name":"大林 至 民雄 路段","highway":"國道1號","direction":"南下","location":{"lat":23.601989,"lng":120.435417},"region":"嘉義縣"},{"id":"01F2603S","name":"民雄 至 嘉義 路段","highway":"國道1號","direction":"南下","location":{"lat":23.526739,"lng":120.405583},"region":"嘉義縣"},{"id":"01F2674S","name":"嘉義 至 水上 路段","highway":"國道1號","direction":"南下","location":{"lat":23.469403,"lng":120.3777},"region":"嘉義縣"},{"id":"01F2714S","name":"水上 至 嘉義系統(連接台82) 路段","highway":"國道1號","direction":"南下","location":{"lat":23.436367,"lng":120.361561},"region":"嘉義縣"},{"id":"01F2827S","name":"嘉義系統(連接台82) 至 新營服務區 路段","highway":"國道1號","direction":"南下","location":{"lat":23.347469,"lng":120.322192},"region":"台南市"},{"id":"01F2866S","name":"新營服務區 至 新營 路段","highway":"國道1號","direction":"南下","location":{"lat":23.320994,"lng":120.298703},"region":"台南市"},{"id":"01F2930S","name":"新營 至 下營系統(連接台84) 路段","highway":"國道1號","direction":"南下","location":{"lat":23.272589,"lng":120.265769},"region":"台南市"},{"id":"01F3019S","name":"下營系統(連接台84) 至 麻豆 路段","highway":"國道1號","direction":"南下","location":{"lat":23.205089,"lng":120.236675},"region":"台南市"},{"id":"01F3083S","name":"麻豆 至 安定 路段","highway":"國道1號","direction":"南下","location":{"lat":23.148131,"lng":120.231303},"region":"台南市"},{"id":"01F3126S","name":"安定 至 台南系統(連接國8) 路段","highway":"國道1號","direction":"南下","location":{"lat":23.104817,"lng":120.247681},"region":"台南市"},{"id":"01F3185S","name":"台南系統(連接國8) 至 永康 路段","highway":"國道1號","direction":"南下","location":{"lat":23.051311,"lng":120.253025},"region":"台南市"},{"id":"01F3227S","name":"永康 至 大灣 路段","highway":"國道1號","direction":"南下","location":{"lat":23.014172,"lng":120.249997},"region":"台南市"},{"id":"01F3252S","name":"大灣 至 台南(仁德) 路段","highway":"國道1號","direction":"南下","location":{"lat":22.991814,"lng":120.248175},"region":"台南市"},{"id":"01F3286S","name":"台南(仁德) 至 仁德系統(連接台86) 路段","highway":"國道1號","direction":"南下","location":{"lat":22.960903,"lng":120.249822},"region":"台南市"},{"id":"01F3366S","name":"仁德系統(連接台86) 至 路竹 路段","highway":"國道1號","direction":"南下","location":{"lat":22.892619,"lng":120.27215},"region":"高雄市"},{"id":"01F3398S","name":"路竹 至 高科 路段","highway":"國道1號","direction":"南下","location":{"lat":22.867419,"lng":120.284989},"region":"高雄市"},{"id":"01F3460S","name":"高科 至 岡山 路段","highway":"國道1號","direction":"南下","location":{"lat":22.818039,"lng":120.312731},"region":"高雄市"},{"id":"01F3525S","name":"岡山 至 楠梓(旗楠路) 路段","highway":"國道1號","direction":"南下","location":{"lat":22.761672,"lng":120.330806},"region":"高雄市"},{"id":"01F3561S","name":"楠梓(旗楠路) 至 楠梓(鳳楠路) 路段","highway":"國道1號","direction":"南下","location":{"lat":22.728956,"lng":120.333764},"region":"高雄市"},{"id":"01F3590S","name":"楠梓(鳳楠路) 至 鼎金系統(連接國10、大中路) 路段","highway":"國道1號","direction":"南下","location":{"lat":22.703525,"lng":120.328219},"region":"高雄市"},{"id":"01F3640S","name":"鼎金系統(連接國10、大中路) 至 高雄(九如、建國路) 路段","highway":"國道1號","direction":"南下","location":{"lat":22.658892,"lng":120.332081},"region":"高雄市"},{"id":"01F3676S","name":"高雄(九如、建國路) 至 高雄(中正、三多路) 路段","highway":"國道1號","direction":"南下","location":{"lat":22.627819,"lng":120.336222},"region":"高雄市"},{"id":"01F3686S","name":"高雄(中正、三多路) 至 瑞隆路南下出口匝道 路段","highway":"國道1號","direction":"南下","location":{"lat":22.618206,"lng":120.336853},"region":"高雄市"},{"id":"01F3736S","name":"高雄端(中山四路) 至 高雄端(新生路) 路段","highway":"國道1號","direction":"南下","location":{"lat":22.581933,"lng":120.32315},"region":"高雄市"},{"id":"01F0005N","name":"基隆(長庚醫院) 至 基隆端(基隆港) 路段","highway":"國道1號","direction":"北上","location":{"lat":25.1183111,"lng":121.7316361},"region":"基隆市"},{"id":"01F0017N","name":"八堵 至 基隆(長庚醫院) 路段","highway":"國道1號","direction":"北上","location":{"lat":25.1095667,"lng":121.7259056},"region":"基隆市"},{"id":"01F0029N","name":"大華系統(連接台62) 至 八堵 路段","highway":"國道1號","direction":"北上","location":{"lat":25.1031111,"lng":121.7173694},"region":"基隆市"},{"id":"01F0061N","name":"五堵 至 大華系統(連接台62) 路段","highway":"國道1號","direction":"北上","location":{"lat":25.0883944,"lng":121.6934833},"region":"基隆市"},{"id":"01F0099N","name":"汐止&汐止系統(連接國3) 至 五堵 路段","highway":"國道1號","direction":"北上","location":{"lat":25.0760444,"lng":121.6594222},"region":"新北市"},{"id":"01F0147N","name":"東湖 至 汐止&汐止系統(連接國3) 路段","highway":"國道1號","direction":"北上","location":{"lat":25.0656444,"lng":121.6135194},"region":"台北市"},{"id":"01F0155N","name":"內湖(南京東、成功路) 至 東湖 路段","highway":"國道1號","direction":"北上","location":{"lat":25.0647528,"lng":121.6059028},"region":"台北市"},{"id":"01F0213N","name":"圓山(建國北路) 至 內湖(南京東、成功路) 路段","highway":"國道1號","direction":"北上","location":{"lat":25.073053,"lng":121.550358},"region":"台北市"},{"id":"01F0233N","name":"台北(重慶北、士林) 至 圓山(建國北路) 路段","highway":"國道1號","direction":"北上","location":{"lat":25.0730194,"lng":121.5307028},"region":"台北市"},{"id":"01F0256N","name":"三重 至 台北(重慶北、士林) 路段","highway":"國道1號","direction":"北上","location":{"lat":25.0780667,"lng":121.5091056},"region":"台北市"},{"id":"01F0293N","name":"五股 至 三重 路段","highway":"國道1號","direction":"北上","location":{"lat":25.0747972,"lng":121.4729611},"region":"新北市"},{"id":"01F0339N","name":"高公局 至 五股 路段","highway":"國道1號","direction":"北上","location":{"lat":25.068239,"lng":121.428764},"region":"新北市"},{"id":"01F0376N","name":"林口(文化一路) 至 高公局 路段","highway":"國道1號","direction":"北上","location":{"lat":25.058667,"lng":121.397306},"region":"新北市"},{"id":"01F0413N","name":"林口(文化北路) 至 林口(文化一路) 路段","highway":"國道1號","direction":"北上","location":{"lat":25.065081,"lng":121.363444},"region":"新北市"},{"id":"01F0467N","name":"桃園 至 林口(文化北路) 路段","highway":"國道1號","direction":"北上","location":{"lat":25.047075,"lng":121.317761},"region":"桃園市"},{"id":"01F0509N","name":"機場系統(連接國2) 至 桃園 路段","highway":"國道1號","direction":"北上","location":{"lat":25.027206,"lng":121.283072},"region":"桃園市"},{"id":"01F0532N","name":"中壢服務區 至 機場系統(連接國2) 路段","highway":"國道1號","direction":"北上","location":{"lat":25.012944,"lng":121.266194},"region":"桃園市"},{"id":"01F0557N","name":"內壢 至 中壢服務區 路段","highway":"國道1號","direction":"北上","location":{"lat":24.998583,"lng":121.247722},"region":"桃園市"},{"id":"01F0584N","name":"中壢 至 內壢 路段","highway":"國道1號","direction":"北上","location":{"lat":24.980558,"lng":121.228944},"region":"桃園市"},{"id":"01F0633N","name":"平鎮系統(連接台66) 至 中壢 路段","highway":"國道1號","direction":"北上","location":{"lat":24.949281,"lng":121.195594},"region":"桃園市"},{"id":"01F0664N","name":"幼獅 至 平鎮系統(連接台66) 路段","highway":"國道1號","direction":"北上","location":{"lat":24.929544,"lng":121.176919},"region":"桃園市"},{"id":"01F0681N","name":"楊梅 至 幼獅 路段","highway":"國道1號","direction":"北上","location":{"lat":24.917967,"lng":121.167586},"region":"桃園市"},{"id":"01F0750N","name":"湖口 至 楊梅 路段","highway":"國道1號","direction":"北上","location":{"lat":24.893436,"lng":121.111731},"region":"桃園市"},{"id":"01F0880N","name":"竹北 至 湖口 路段","highway":"國道1號","direction":"北上","location":{"lat":24.848719,"lng":121.019031},"region":"新竹縣"},{"id":"01F0928N","name":"新竹(光復路) 至 竹北 路段","highway":"國道1號","direction":"北上","location":{"lat":24.808453,"lng":121.010306},"region":"新竹市"},{"id":"01F0956N","name":"新竹(科學園區) 至 新竹(光復路) 路段","highway":"國道1號","direction":"北上","location":{"lat":24.783944,"lng":121.003725},"region":"新竹市"},{"id":"01F0979N","name":"新竹系統(連接國3) 至 新竹(科學園區) 路段","highway":"國道1號","direction":"北上","location":{"lat":24.764414,"lng":120.999897},"region":"新竹縣"},{"id":"01F1045N","name":"頭份 至 新竹系統(連接國3) 路段","highway":"國道1號","direction":"北上","location":{"lat":24.727131,"lng":120.951897},"region":"新竹縣"},{"id":"01F1123N","name":"頭屋 至 頭份 路段","highway":"國道1號","direction":"北上","location":{"lat":24.6793167,"lng":120.9042667},"region":"苗栗縣"},{"id":"01F1292N","name":"苗栗 至 頭屋 路段","highway":"國道1號","direction":"北上","location":{"lat":24.550442,"lng":120.838925},"region":"苗栗縣"},{"id":"01F1389N","name":"銅鑼 至 苗栗 路段","highway":"國道1號","direction":"北上","location":{"lat":24.485919,"lng":120.781903},"region":"苗栗縣"},{"id":"01F1465N","name":"三義 至 銅鑼 路段","highway":"國道1號","direction":"北上","location":{"lat":24.420514,"lng":120.775731},"region":"苗栗縣"},{"id":"01F1572N","name":"后里 至 三義 路段","highway":"國道1號","direction":"北上","location":{"lat":24.339147,"lng":120.72085},"region":"台中市"},{"id":"01F1621N","name":"台中系統(連接國4) 至 后里 路段","highway":"國道1號","direction":"北上","location":{"lat":24.301186,"lng":120.697325},"region":"台中市"},{"id":"01F1664N","name":"豐原 至 台中系統(連接國4) 路段","highway":"國道1號","direction":"北上","location":{"lat":24.262647,"lng":120.691956},"region":"台中市"},{"id":"01F1725N","name":"大雅 至 豐原 路段","highway":"國道1號","direction":"北上","location":{"lat":24.212956,"lng":120.671375},"region":"台中市"},{"id":"01F1774N","name":"台中(台灣大道) 至 大雅 路段","highway":"國道1號","direction":"北上","location":{"lat":24.184592,"lng":120.635611},"region":"台中市"},{"id":"01F1802N","name":"南屯 至 台中(台灣大道) 路段","highway":"國道1號","direction":"北上","location":{"lat":24.163706,"lng":120.621933},"region":"台中市"},{"id":"01F1839N","name":"王田 至 南屯 路段","highway":"國道1號","direction":"北上","location":{"lat":24.130767,"lng":120.617247},"region":"台中市"},{"id":"01F1906N","name":"彰化系統(連接國3) 至 王田 路段","highway":"國道1號","direction":"北上","location":{"lat":24.113572,"lng":120.568131},"region":"台中市"},{"id":"01F1960N","name":"彰化 至 彰化系統(連接國3) 路段","highway":"國道1號","direction":"北上","location":{"lat":24.085622,"lng":120.52785},"region":"彰化縣"},{"id":"01F2011N","name":"埔鹽系統(連接台76) 至 彰化 路段","highway":"國道1號","direction":"北上","location":{"lat":24.040639,"lng":120.522786},"region":"彰化縣"},{"id":"01F2089N","name":"員林 至 埔鹽系統(連接台76) 路段","highway":"國道1號","direction":"北上","location":{"lat":23.971794,"lng":120.506117},"region":"彰化縣"},{"id":"01F2156N","name":"北斗 至 員林 路段","highway":"國道1號","direction":"北上","location":{"lat":23.912769,"lng":120.49765},"region":"彰化縣"},{"id":"01F2249N","name":"西螺 至 北斗 路段","highway":"國道1號","direction":"北上","location":{"lat":23.830569,"lng":120.484881},"region":"彰化縣"},{"id":"01F2322N","name":"虎尾(斗六聯絡道) 至 西螺 路段","highway":"國道1號","direction":"北上","location":{"lat":23.766328,"lng":120.469342},"region":"雲林縣"},{"id":"01F2394N","name":"斗南(158縣道) 至 虎尾(斗六聯絡道) 路段","highway":"國道1號","direction":"北上","location":{"lat":23.702603,"lng":120.474917},"region":"雲林縣"},{"id":"01F2425N","name":"雲林系統(連接台78) 至 斗南(158縣道) 路段","highway":"國道1號","direction":"北上","location":{"lat":23.677375,"lng":120.462281},"region":"雲林縣"},{"id":"01F2483N","name":"大林 至 雲林系統(連接台78) 路段","highway":"國道1號","direction":"北上","location":{"lat":23.629158,"lng":120.440264},"region":"雲林縣"},{"id":"01F2514N","name":"民雄 至 大林 路段","highway":"國道1號","direction":"北上","location":{"lat":23.601989,"lng":120.435417},"region":"嘉義縣"},{"id":"01F2603N","name":"嘉義 至 民雄 路段","highway":"國道1號","direction":"北上","location":{"lat":23.526739,"lng":120.405583},"region":"嘉義縣"},{"id":"01F2674N","name":"水上 至 嘉義 路段","highway":"國道1號","direction":"北上","location":{"lat":23.469403,"lng":120.3777},"region":"嘉義縣"},{"id":"01F2714N","name":"嘉義系統(連接台82) 至 水上 路段","highway":"國道1號","direction":"北上","location":{"lat":23.436367,"lng":120.361561},"region":"嘉義縣"},{"id":"01F2827N","name":"新營服務區 至 嘉義系統(連接台82) 路段","highway":"國道1號","direction":"北上","location":{"lat":23.347469,"lng":120.322192},"region":"台南市"},{"id":"01F2866N","name":"新營 至 新營服務區 路段","highway":"國道1號","direction":"北上","location":{"lat":23.320994,"lng":120.298703},"region":"台南市"},{"id":"01F2930N","name":"下營系統(連接台84) 至 新營 路段","highway":"國道1號","direction":"北上","location":{"lat":23.272589,"lng":120.265769},"region":"台南市"},{"id":"01F3019N","name":"麻豆 至 下營系統(連接台84) 路段","highway":"國道1號","direction":"北上","location":{"lat":23.205089,"lng":120.236675},"region":"台南市"},{"id":"01F3083N","name":"安定 至 麻豆 路段","highway":"國道1號","direction":"北上","location":{"lat":23.148131,"lng":120.231303},"region":"台南市"},{"id":"01F3126N","name":"台南系統(連接國8) 至 安定 路段","highway":"國道1號","direction":"北上","location":{"lat":23.104817,"lng":120.247681},"region":"台南市"},{"id":"01F3185N","name":"永康 至 台南系統(連接國8) 路段","highway":"國道1號","direction":"北上","location":{"lat":23.051311,"lng":120.253025},"region":"台南市"},{"id":"01F3227N","name":"大灣 至 永康 路段","highway":"國道1號","direction":"北上","location":{"lat":23.014172,"lng":120.249997},"region":"台南市"},{"id":"01F3252N","name":"台南(仁德) 至 大灣 路段","highway":"國道1號","direction":"北上","location":{"lat":22.991814,"lng":120.248175},"region":"台南市"},{"id":"01F3286N","name":"仁德系統(連接台86) 至 台南(仁德) 路段","highway":"國道1號","direction":"北上","location":{"lat":22.960903,"lng":120.249822},"region":"台南市"},{"id":"01F3366N","name":"路竹 至 仁德系統(連接台86) 路段","highway":"國道1號","direction":"北上","location":{"lat":22.892619,"lng":120.27215},"region":"高雄市"},{"id":"01F3398N","name":"高科 至 路竹 路段","highway":"國道1號","direction":"北上","location":{"lat":22.867419,"lng":120.284989},"region":"高雄市"},{"id":"01F3460N","name":"岡山 至 高科 路段","highway":"國道1號","direction":"北上","location":{"lat":22.818039,"lng":120.312731},"region":"高雄市"},{"id":"01F3525N","name":"楠梓(旗楠路) 至 岡山 路段","highway":"國道1號","direction":"北上","location":{"lat":22.761672,"lng":120.330806},"region":"高雄市"},{"id":"01F3559N","name":"楠梓(鳳楠路) 至 楠梓(旗楠路) 路段","highway":"國道1號","direction":"北上","location":{"lat":22.730903,"lng":120.334286},"region":"高雄市"},{"id":"01F3590N","name":"鼎金系統(連接國10、大中路) 至 楠梓(鳳楠路) 路段","highway":"國道1號","direction":"北上","location":{"lat":22.703525,"lng":120.328219},"region":"高雄市"},{"id":"01F3640N","name":"高雄(九如、建國路) 至 鼎金系統(連接國10、大中路) 路段","highway":"國道1號","direction":"北上","location":{"lat":22.658892,"lng":120.332081},"region":"高雄市"},{"id":"01F3676N","name":"高雄(中正、三多路) 至 高雄(九如、建國路) 路段","highway":"國道1號","direction":"北上","location":{"lat":22.627819,"lng":120.336222},"region":"高雄市"},{"id":"01F3696N","name":"瑞隆路南下出口匝道 至 高雄(中正、三多路) 路段","highway":"國道1號","direction":"北上","location":{"lat":22.609428,"lng":120.339608},"region":"高雄市"},{"id":"01F3736N","name":"高雄端(新生路) 至 高雄端(中山四路) 路段","highway":"國道1號","direction":"北上","location":{"lat":22.581933,"lng":120.32315},"region":"高雄市"},{"id":"01H0163S","name":"汐止&汐止系統(連接國1平面) 至 堤頂 路段","highway":"國道1號","direction":"南下","location":{"lat":25.064006,"lng":121.598733},"region":"台北市"},{"id":"01H0206S","name":"堤頂 至 環北 路段","highway":"國道1號","direction":"南下","location":{"lat":25.07275,"lng":121.557739},"region":"台北市"},{"id":"01H0305S","name":"環北 至 五股(高架) 路段","highway":"國道1號","direction":"南下","location":{"lat":25.072747,"lng":121.450939},"region":"新北市"},{"id":"01H0334S","name":"五股(高架) 至 高公局 路段","highway":"國道1號","direction":"南下","location":{"lat":25.068728,"lng":121.433281},"region":"新北市"},{"id":"01H0447S","name":"高公局 至 機場系統(連接國2) 路段","highway":"國道1號","direction":"南下","location":{"lat":25.060125,"lng":121.331858},"region":"桃園市"},{"id":"01H0579S","name":"機場系統(連接國2) 至 中壢 路段","highway":"國道1號","direction":"南下","location":{"lat":24.984094,"lng":121.232531},"region":"桃園市"},{"id":"01H0610S","name":"中壢 至 楊梅 路段","highway":"國道1號","direction":"南下","location":{"lat":24.96525,"lng":121.209867},"region":"桃園市"},{"id":"01H0174N","name":"堤頂 至 汐止&汐止系統(連接國1平面) 路段","highway":"國道1號","direction":"北上","location":{"lat":25.065544,"lng":121.588044},"region":"台北市"},{"id":"01H0200N","name":"下塔悠北上出口匝道 至 堤頂 路段","highway":"國道1號","direction":"北上","location":{"lat":25.070994,"lng":121.562519},"region":"台北市"},{"id":"01H0208N","name":"環北 至 下塔悠北上出口匝道 路段","highway":"國道1號","direction":"北上","location":{"lat":25.072261,"lng":121.555014},"region":"台北市"},{"id":"01H0271N","name":"五股(高架) 至 環北 路段","highway":"國道1號","direction":"北上","location":{"lat":25.075256,"lng":121.494019},"region":"新北市"},{"id":"01H0333N","name":"高公局 至 五股(高架) 路段","highway":"國道1號","direction":"北上","location":{"lat":25.068147,"lng":121.435133},"region":"新北市"},{"id":"01H0447N","name":"機場系統(連接國2) 至 高公局 路段","highway":"國道1號","direction":"北上","location":{"lat":25.059242,"lng":121.332072},"region":"桃園市"},{"id":"01H0579N","name":"中壢 至 機場系統(連接國2) 路段","highway":"國道1號","direction":"北上","location":{"lat":24.983667,"lng":121.232981},"region":"桃園市"},{"id":"01H0608N","name":"楊梅 至 中壢 路段","highway":"國道1號","direction":"北上","location":{"lat":24.965878,"lng":121.211614},"region":"桃園市"},{"id":"03F0006S","name":"基金 至 瑪東系統(連接台62) 路段","highway":"國道3號","direction":"南下","location":{"lat":25.137106,"lng":121.708908},"region":"基隆市"},{"id":"03F0087S","name":"瑪東系統(連接台62) 至 汐止系統(連接國1) 路段","highway":"國道3號","direction":"南下","location":{"lat":25.089994,"lng":121.653556},"region":"新北市"},{"id":"03F0116S","name":"汐止系統(連接國1) 至 新台五路 路段","highway":"國道3號","direction":"南下","location":{"lat":25.065611,"lng":121.643467},"region":"新北市"},{"id":"03F0136S","name":"新台五路 至 南港(連接環東大道) 路段","highway":"國道3號","direction":"南下","location":{"lat":25.052742,"lng":121.631281},"region":"新北市"},{"id":"03F0158S","name":"南港(連接環東大道) 至 南港系統(連接國五) 路段","highway":"國道3號","direction":"南下","location":{"lat":25.036533,"lng":121.621386},"region":"新北市"},{"id":"03F0201S","name":"南港系統(連接國五) 至 木柵(連接國3甲) 路段","highway":"國道3號","direction":"南下","location":{"lat":25.007436,"lng":121.595981},"region":"新北市"},{"id":"03F0217S","name":"木柵(連接國3甲) 至 新店(中興路) 路段","highway":"國道3號","direction":"南下","location":{"lat":24.993567,"lng":121.592933},"region":"台北市"},{"id":"03F0301S","name":"新店(中興路) 至 安坑(中央、安康路) 路段","highway":"國道3號","direction":"南下","location":{"lat":24.96255,"lng":121.530572},"region":"新北市"},{"id":"03F0337S","name":"安坑(中央、安康路) 至 中和(連接台64) 路段","highway":"國道3號","direction":"南下","location":{"lat":24.978881,"lng":121.502381},"region":"新北市"},{"id":"03F0394S","name":"中和(連接台64) 至 土城(連接台65) 路段","highway":"國道3號","direction":"南下","location":{"lat":24.975247,"lng":121.454925},"region":"新北市"},{"id":"03F0447S","name":"土城(連接台65) 至 樹林 路段","highway":"國道3號","direction":"南下","location":{"lat":24.950503,"lng":121.412681},"region":"新北市"},{"id":"03F0498S","name":"樹林 至 三鶯 路段","highway":"國道3號","direction":"南下","location":{"lat":24.943825,"lng":121.365275},"region":"新北市"},{"id":"03F0525S","name":"三鶯 至 鶯歌系統(連接國2) 路段","highway":"國道3號","direction":"南下","location":{"lat":24.936025,"lng":121.3419},"region":"新北市"},{"id":"03F0559S","name":"鶯歌系統(連接國2) 至 大溪(連接台66) 路段","highway":"國道3號","direction":"南下","location":{"lat":24.930225,"lng":121.312458},"region":"桃園市"},{"id":"03F0648S","name":"大溪(連接台66) 至 龍潭 路段","highway":"國道3號","direction":"南下","location":{"lat":24.878792,"lng":121.250839},"region":"桃園市"},{"id":"03F0698S","name":"龍潭 至 關西服務區 路段","highway":"國道3號","direction":"南下","location":{"lat":24.856558,"lng":121.208581},"region":"桃園市"},{"id":"03F0783S","name":"關西服務區 至 關西 路段","highway":"國道3號","direction":"南下","location":{"lat":24.797339,"lng":121.179128},"region":"新竹縣"},{"id":"03F0846S","name":"關西 至 竹林 路段","highway":"國道3號","direction":"南下","location":{"lat":24.791439,"lng":121.125997},"region":"新竹縣"},{"id":"03F0961S","name":"竹林 至 寶山 路段","highway":"國道3號","direction":"南下","location":{"lat":24.758442,"lng":121.030425},"region":"新竹縣"},{"id":"03F0996S","name":"寶山 至 新竹系統(連接國1) 路段","highway":"國道3號","direction":"南下","location":{"lat":24.755811,"lng":120.997269},"region":"新竹縣"},{"id":"03F1022S","name":"新竹系統(連接國1) 至 茄苳 路段","highway":"國道3號","direction":"南下","location":{"lat":24.757914,"lng":120.972267},"region":"新竹縣"},{"id":"03F1051S","name":"茄苳 至 香山 路段","highway":"國道3號","direction":"南下","location":{"lat":24.753094,"lng":120.945675},"region":"新竹市"},{"id":"03F1128S","name":"香山 至 西濱(連接台61) 路段","highway":"國道3號","direction":"南下","location":{"lat":24.711383,"lng":120.889639},"region":"苗栗縣"},{"id":"03F1161S","name":"西濱(連接台61) 至 竹南 路段","highway":"國道3號","direction":"南下","location":{"lat":24.698006,"lng":120.860086},"region":"苗栗縣"},{"id":"03F1215S","name":"竹南 至 大山 路段","highway":"國道3號","direction":"南下","location":{"lat":24.655964,"lng":120.838242},"region":"苗栗縣"},{"id":"03F1257S","name":"大山 至 後龍 路段","highway":"國道3號","direction":"南下","location":{"lat":24.627161,"lng":120.814006},"region":"苗栗縣"},{"id":"03F1332S","name":"後龍 至 西湖服務區 路段","highway":"國道3號","direction":"南下","location":{"lat":24.579642,"lng":120.764417},"region":"苗栗縣"},{"id":"03F1395S","name":"西湖服務區 至 通霄 路段","highway":"國道3號","direction":"南下","location":{"lat":24.531125,"lng":120.733253},"region":"苗栗縣"},{"id":"03F1485S","name":"通霄 至 苑裡 路段","highway":"國道3號","direction":"南下","location":{"lat":24.467308,"lng":120.681217},"region":"苗栗縣"},{"id":"03F1633S","name":"苑裡 至 大甲 路段","highway":"國道3號","direction":"南下","location":{"lat":24.341119,"lng":120.651567},"region":"台中市"},{"id":"03F1651S","name":"大甲 至 中港系統(連接國4) 路段","highway":"國道3號","direction":"南下","location":{"lat":24.334719,"lng":120.635578},"region":"台中市"},{"id":"03F1710S","name":"中港系統(連接國4) 至 清水服務區 路段","highway":"國道3號","direction":"南下","location":{"lat":24.292881,"lng":120.601964},"region":"台中市"},{"id":"03F1739S","name":"清水服務區 至 沙鹿 路段","highway":"國道3號","direction":"南下","location":{"lat":24.269464,"lng":120.590806},"region":"台中市"},{"id":"03F1779S","name":"沙鹿 至 龍井 路段","highway":"國道3號","direction":"南下","location":{"lat":24.234647,"lng":120.593306},"region":"台中市"},{"id":"03F1860S","name":"龍井 至 和美 路段","highway":"國道3號","direction":"南下","location":{"lat":24.177831,"lng":120.548244},"region":"台中市"},{"id":"03F1944S","name":"和美 至 彰化系統(連接國1) 路段","highway":"國道3號","direction":"南下","location":{"lat":24.119011,"lng":120.536692},"region":"彰化縣"},{"id":"03F1991S","name":"彰化系統(連接國1) 至 快官(連接台74) 路段","highway":"國道3號","direction":"南下","location":{"lat":24.102808,"lng":120.577661},"region":"彰化縣"},{"id":"03F2066S","name":"快官(連接台74) 至 烏日 路段","highway":"國道3號","direction":"南下","location":{"lat":24.070333,"lng":120.639711},"region":"台中市"},{"id":"03F2079S","name":"烏日 至 中投(連接台63) 路段","highway":"國道3號","direction":"南下","location":{"lat":24.067778,"lng":120.652361},"region":"台中市"},{"id":"03F2100S","name":"中投(連接台63) 至 霧峰(台3線、太平-台74) 路段","highway":"國道3號","direction":"南下","location":{"lat":24.060653,"lng":120.670964},"region":"台中市"},{"id":"03F2129S","name":"霧峰(台3線、太平-台74) 至 霧峰系統(連接國6) 路段","highway":"國道3號","direction":"南下","location":{"lat":24.037392,"lng":120.675775},"region":"台中市"},{"id":"03F2152S","name":"霧峰系統(連接國6) 至 草屯 路段","highway":"國道3號","direction":"南下","location":{"lat":24.019992,"lng":120.663222},"region":"彰化縣"},{"id":"03F2194S","name":"草屯 至 中興系統(台76-八卦山隧道) 路段","highway":"國道3號","direction":"南下","location":{"lat":23.985844,"lng":120.652714},"region":"南投縣"},{"id":"03F2235S","name":"中興系統(台76-八卦山隧道) 至 中興 路段","highway":"國道3號","direction":"南下","location":{"lat":23.955503,"lng":120.661267},"region":"南投縣"},{"id":"03F2261S","name":"中興 至 南投 路段","highway":"國道3號","direction":"南下","location":{"lat":23.9376,"lng":120.677039},"region":"南投縣"},{"id":"03F2306S","name":"南投 至 南投服務區 路段","highway":"國道3號","direction":"南下","location":{"lat":23.906781,"lng":120.702828},"region":"南投縣"},{"id":"03F2336S","name":"南投服務區 至 名間 路段","highway":"國道3號","direction":"南下","location":{"lat":23.882031,"lng":120.709186},"region":"南投縣"},{"id":"03F2415S","name":"名間 至 竹山 路段","highway":"國道3號","direction":"南下","location":{"lat":23.814836,"lng":120.700003},"region":"南投縣"},{"id":"03F2447S","name":"竹山 至 南雲 路段","highway":"國道3號","direction":"南下","location":{"lat":23.787486,"lng":120.704519},"region":"南投縣"},{"id":"03F2535S","name":"南雲 至 斗六 路段","highway":"國道3號","direction":"南下","location":{"lat":23.775581,"lng":120.6259},"region":"雲林縣"},{"id":"03F2614S","name":"斗六 至 古坑(文化路)&古坑系統(連接台78) 路段","highway":"國道3號","direction":"南下","location":{"lat":23.724425,"lng":120.601786},"region":"雲林縣"},{"id":"03F2709S","name":"古坑(文化路)&古坑系統(連接台78) 至 古坑(朝陽路) 路段","highway":"國道3號","direction":"南下","location":{"lat":23.649142,"lng":120.57295},"region":"雲林縣"},{"id":"03F2747S","name":"古坑(朝陽路) 至 古坑服務區 路段","highway":"國道3號","direction":"南下","location":{"lat":23.618203,"lng":120.558567},"region":"雲林縣"},{"id":"03F2777S","name":"古坑服務區 至 梅山 路段","highway":"國道3號","direction":"南下","location":{"lat":23.606792,"lng":120.532511},"region":"雲林縣"},{"id":"03F2840S","name":"梅山 至 竹崎(竹崎連絡道) 路段","highway":"國道3號","direction":"南下","location":{"lat":23.558125,"lng":120.505061},"region":"嘉義縣"},{"id":"03F2899S","name":"竹崎(竹崎連絡道) 至 竹崎(159縣道) 路段","highway":"國道3號","direction":"南下","location":{"lat":23.511683,"lng":120.486328},"region":"嘉義縣"},{"id":"03F2923S","name":"竹崎(159縣道) 至 中埔 路段","highway":"國道3號","direction":"南下","location":{"lat":23.492078,"lng":120.494586},"region":"嘉義縣"},{"id":"03F2985S","name":"中埔 至 水上系統(連接台82) 路段","highway":"國道3號","direction":"南下","location":{"lat":23.442486,"lng":120.4812},"region":"嘉義縣"},{"id":"03F3101S","name":"水上系統(連接台82) 至 白河 路段","highway":"國道3號","direction":"南下","location":{"lat":23.361253,"lng":120.436356},"region":"台南市"},{"id":"03F3187S","name":"白河 至 東山服務區 路段","highway":"國道3號","direction":"南下","location":{"lat":23.296692,"lng":120.404164},"region":"台南市"},{"id":"03F3211S","name":"東山服務區 至 柳營 路段","highway":"國道3號","direction":"南下","location":{"lat":23.279281,"lng":120.390253},"region":"台南市"},{"id":"03F3259S","name":"柳營 至 烏山頭 路段","highway":"國道3號","direction":"南下","location":{"lat":23.244994,"lng":120.367378},"region":"台南市"},{"id":"03F3307S","name":"烏山頭 至 官田系統(連接台84) 路段","highway":"國道3號","direction":"南下","location":{"lat":23.203275,"lng":120.355461},"region":"台南市"},{"id":"03F3392S","name":"官田系統(連接台84) 至 善化 路段","highway":"國道3號","direction":"南下","location":{"lat":23.132064,"lng":120.333711},"region":"台南市"},{"id":"03F3445S","name":"善化 至 新化系統(連接國8) 路段","highway":"國道3號","direction":"南下","location":{"lat":23.085272,"lng":120.329033},"region":"台南市"},{"id":"03F3496S","name":"新化系統(連接國8) 至 關廟(連接台86) 路段","highway":"國道3號","direction":"南下","location":{"lat":23.040203,"lng":120.325172},"region":"台南市"},{"id":"03F3588S","name":"關廟(連接台86) 至 關廟服務區 路段","highway":"國道3號","direction":"南下","location":{"lat":22.969758,"lng":120.340164},"region":"台南市"},{"id":"03F3670S","name":"關廟服務區 至 田寮 路段","highway":"國道3號","direction":"南下","location":{"lat":22.901969,"lng":120.354767},"region":"高雄市"},{"id":"03F3743S","name":"田寮 至 燕巢系統(連接國10) 路段","highway":"國道3號","direction":"南下","location":{"lat":22.845122,"lng":120.385428},"region":"高雄市"},{"id":"03F3854S","name":"燕巢系統(連接國10) 至 九如 路段","highway":"國道3號","direction":"南下","location":{"lat":22.769197,"lng":120.441839},"region":"高雄市"},{"id":"03F3916S","name":"九如 至 長治 路段","highway":"國道3號","direction":"南下","location":{"lat":22.749792,"lng":120.496839},"region":"屏東縣"},{"id":"03F4018S","name":"長治 至 麟洛 路段","highway":"國道3號","direction":"南下","location":{"lat":22.682775,"lng":120.563086},"region":"屏東縣"},{"id":"03F4142S","name":"麟洛 至 竹田系統(連接台88) 路段","highway":"國道3號","direction":"南下","location":{"lat":22.579586,"lng":120.526161},"region":"屏東縣"},{"id":"03F4168S","name":"竹田系統(連接台88) 至 崁頂 路段","highway":"國道3號","direction":"南下","location":{"lat":22.557186,"lng":120.524558},"region":"屏東縣"},{"id":"03F4232S","name":"崁頂 至 南州 路段","highway":"國道3號","direction":"南下","location":{"lat":22.501367,"lng":120.525775},"region":"屏東縣"},{"id":"03F4263S","name":"南州 至 林邊(大鵬灣端) 路段","highway":"國道3號","direction":"南下","location":{"lat":22.474661,"lng":120.530844},"region":"屏東縣"},{"id":"03F0021N","name":"瑪東系統(連接台62) 至 基金 路段","highway":"國道3號","direction":"北上","location":{"lat":25.129514,"lng":121.698631},"region":"基隆市"},{"id":"03F0054N","name":"汐止系統(連接國1) 至 瑪東系統(連接台62) 路段","highway":"國道3號","direction":"北上","location":{"lat":25.103747,"lng":121.681789},"region":"基隆市"},{"id":"03F0116N","name":"新台五路 至 汐止系統(連接國1) 路段","highway":"國道3號","direction":"北上","location":{"lat":25.065611,"lng":121.643467},"region":"新北市"},{"id":"03F0140N","name":"南港(連接環東大道) 至 新台五路 路段","highway":"國道3號","direction":"北上","location":{"lat":25.050319,"lng":121.628156},"region":"新北市"},{"id":"03F0150N","name":"南港系統(連接國五)&南深路出口匝道 至 南港(連接環東大道) 路段","highway":"國道3號","direction":"北上","location":{"lat":25.042389,"lng":121.624789},"region":"新北市"},{"id":"03F0201N","name":"木柵(連接國3甲) 至 南港系統(連接國五)&南深路出口匝道 路段","highway":"國道3號","direction":"北上","location":{"lat":25.007375,"lng":121.596381},"region":"新北市"},{"id":"03F0217N","name":"新店(中興路) 至 木柵(連接國3甲) 路段","highway":"國道3號","direction":"北上","location":{"lat":24.993744,"lng":121.593367},"region":"台北市"},{"id":"03F0301N","name":"安坑(中央、安康路) 至 新店(中興路) 路段","highway":"國道3號","direction":"北上","location":{"lat":24.96255,"lng":121.530572},"region":"新北市"},{"id":"03F0338N","name":"中和(連接台64) 至 安坑(中央、安康路) 路段","highway":"國道3號","direction":"北上","location":{"lat":24.978586,"lng":121.501744},"region":"新北市"},{"id":"03F0394N","name":"土城(連接台65) 至 中和(連接台64) 路段","highway":"國道3號","direction":"北上","location":{"lat":24.975247,"lng":121.454925},"region":"新北市"},{"id":"03F0447N","name":"樹林 至 土城(連接台65) 路段","highway":"國道3號","direction":"北上","location":{"lat":24.950503,"lng":121.412681},"region":"新北市"},{"id":"03F0498N","name":"三鶯 至 樹林 路段","highway":"國道3號","direction":"北上","location":{"lat":24.943825,"lng":121.365275},"region":"新北市"},{"id":"03F0525N","name":"鶯歌系統(連接國2) 至 三鶯 路段","highway":"國道3號","direction":"北上","location":{"lat":24.936025,"lng":121.3419},"region":"新北市"},{"id":"03F0559N","name":"大溪(連接台66) 至 鶯歌系統(連接國2) 路段","highway":"國道3號","direction":"北上","location":{"lat":24.930225,"lng":121.312458},"region":"桃園市"},{"id":"03F0648N","name":"龍潭 至 大溪(連接台66) 路段","highway":"國道3號","direction":"北上","location":{"lat":24.878792,"lng":121.250839},"region":"桃園市"},{"id":"03F0698N","name":"關西服務區 至 龍潭 路段","highway":"國道3號","direction":"北上","location":{"lat":24.856558,"lng":121.208581},"region":"桃園市"},{"id":"03F0783N","name":"關西 至 關西服務區 路段","highway":"國道3號","direction":"北上","location":{"lat":24.797339,"lng":121.179128},"region":"新竹縣"},{"id":"03F0846N","name":"竹林 至 關西 路段","highway":"國道3號","direction":"北上","location":{"lat":24.791439,"lng":121.125997},"region":"新竹縣"},{"id":"03F0961N","name":"寶山 至 竹林 路段","highway":"國道3號","direction":"北上","location":{"lat":24.758442,"lng":121.030425},"region":"新竹縣"},{"id":"03F0996N","name":"新竹系統(連接國1) 至 寶山 路段","highway":"國道3號","direction":"北上","location":{"lat":24.755811,"lng":120.997269},"region":"新竹縣"},{"id":"03F1022N","name":"茄苳 至 新竹系統(連接國1) 路段","highway":"國道3號","direction":"北上","location":{"lat":24.757914,"lng":120.972267},"region":"新竹縣"},{"id":"03F1051N","name":"香山 至 茄苳 路段","highway":"國道3號","direction":"北上","location":{"lat":24.753094,"lng":120.945675},"region":"新竹市"},{"id":"03F1128N","name":"西濱(連接台61) 至 香山 路段","highway":"國道3號","direction":"北上","location":{"lat":24.711383,"lng":120.889639},"region":"苗栗縣"},{"id":"03F1161N","name":"竹南 至 西濱(連接台61) 路段","highway":"國道3號","direction":"北上","location":{"lat":24.698006,"lng":120.860086},"region":"苗栗縣"},{"id":"03F1215N","name":"大山 至 竹南 路段","highway":"國道3號","direction":"北上","location":{"lat":24.655964,"lng":120.838242},"region":"苗栗縣"},{"id":"03F1257N","name":"後龍 至 大山 路段","highway":"國道3號","direction":"北上","location":{"lat":24.627161,"lng":120.814006},"region":"苗栗縣"},{"id":"03F1332N","name":"西湖服務區 至 後龍 路段","highway":"國道3號","direction":"北上","location":{"lat":24.579642,"lng":120.764417},"region":"苗栗縣"},{"id":"03F1395N","name":"通霄 至 西湖服務區 路段","highway":"國道3號","direction":"北上","location":{"lat":24.531125,"lng":120.733253},"region":"苗栗縣"},{"id":"03F1485N","name":"苑裡 至 通霄 路段","highway":"國道3號","direction":"北上","location":{"lat":24.467308,"lng":120.681217},"region":"苗栗縣"},{"id":"03F1633N","name":"大甲 至 苑裡 路段","highway":"國道3號","direction":"北上","location":{"lat":24.341119,"lng":120.651567},"region":"台中市"},{"id":"03F1651N","name":"中港系統(連接國4) 至 大甲 路段","highway":"國道3號","direction":"北上","location":{"lat":24.334719,"lng":120.635578},"region":"台中市"},{"id":"03F1710N","name":"清水服務區 至 中港系統(連接國4) 路段","highway":"國道3號","direction":"北上","location":{"lat":24.292881,"lng":120.601964},"region":"台中市"},{"id":"03F1739N","name":"沙鹿 至 清水服務區 路段","highway":"國道3號","direction":"北上","location":{"lat":24.269464,"lng":120.590806},"region":"台中市"},{"id":"03F1779N","name":"龍井 至 沙鹿 路段","highway":"國道3號","direction":"北上","location":{"lat":24.234647,"lng":120.593306},"region":"台中市"},{"id":"03F1860N","name":"和美 至 龍井 路段","highway":"國道3號","direction":"北上","location":{"lat":24.177831,"lng":120.548244},"region":"台中市"},{"id":"03F1941N","name":"彰化系統(連接國1) 至 和美 路段","highway":"國道3號","direction":"北上","location":{"lat":24.120947,"lng":120.534547},"region":"彰化縣"},{"id":"03F1992N","name":"快官(連接台74) 至 彰化系統(連接國1) 路段","highway":"國道3號","direction":"北上","location":{"lat":24.102525,"lng":120.578747},"region":"彰化縣"},{"id":"03F2066N","name":"烏日 至 快官(連接台74) 路段","highway":"國道3號","direction":"北上","location":{"lat":24.070333,"lng":120.639711},"region":"台中市"},{"id":"03F2078N","name":"中投(連接台63) 至 烏日 路段","highway":"國道3號","direction":"北上","location":{"lat":24.067958,"lng":120.651433},"region":"台中市"},{"id":"03F2100N","name":"霧峰(台3線、太平-台74) 至 中投(連接台63) 路段","highway":"國道3號","direction":"北上","location":{"lat":24.060428,"lng":120.671533},"region":"台中市"},{"id":"03F2125N","name":"霧峰系統(連接國6) 至 霧峰(台3線、太平-台74) 路段","highway":"國道3號","direction":"北上","location":{"lat":24.040994,"lng":120.677853},"region":"台中市"},{"id":"03F2153N","name":"草屯 至 霧峰系統(連接國6) 路段","highway":"國道3號","direction":"北上","location":{"lat":24.0189444,"lng":120.6631611},"region":"彰化縣"},{"id":"03F2194N","name":"中興系統(台76-八卦山隧道) 至 草屯 路段","highway":"國道3號","direction":"北上","location":{"lat":23.985844,"lng":120.652714},"region":"南投縣"},{"id":"03F2231N","name":"中興 至 中興系統(台76-八卦山隧道) 路段","highway":"國道3號","direction":"北上","location":{"lat":23.957103,"lng":120.657614},"region":"南投縣"},{"id":"03F2260N","name":"南投 至 中興 路段","highway":"國道3號","direction":"北上","location":{"lat":23.937928,"lng":120.676853},"region":"南投縣"},{"id":"03F2306N","name":"南投服務區 至 南投 路段","highway":"國道3號","direction":"北上","location":{"lat":23.906781,"lng":120.702828},"region":"南投縣"},{"id":"03F2336N","name":"名間 至 南投服務區 路段","highway":"國道3號","direction":"北上","location":{"lat":23.882031,"lng":120.709186},"region":"南投縣"},{"id":"03F2415N","name":"竹山 至 名間 路段","highway":"國道3號","direction":"北上","location":{"lat":23.814836,"lng":120.700003},"region":"南投縣"},{"id":"03F2447N","name":"南雲 至 竹山 路段","highway":"國道3號","direction":"北上","location":{"lat":23.787486,"lng":120.704519},"region":"南投縣"},{"id":"03F2535N","name":"斗六 至 南雲 路段","highway":"國道3號","direction":"北上","location":{"lat":23.775581,"lng":120.6259},"region":"雲林縣"},{"id":"03F2614N","name":"古坑(文化路)&古坑系統(連接台78) 至 斗六 路段","highway":"國道3號","direction":"北上","location":{"lat":23.724425,"lng":120.601786},"region":"雲林縣"},{"id":"03F2709N","name":"古坑(朝陽路) 至 古坑(文化路)&古坑系統(連接台78) 路段","highway":"國道3號","direction":"北上","location":{"lat":23.6492778,"lng":120.5729111},"region":"雲林縣"},{"id":"03F2747N","name":"古坑服務區 至 古坑(朝陽路) 路段","highway":"國道3號","direction":"北上","location":{"lat":23.618203,"lng":120.558567},"region":"雲林縣"},{"id":"03F2777N","name":"梅山 至 古坑服務區 路段","highway":"國道3號","direction":"北上","location":{"lat":23.606792,"lng":120.532511},"region":"雲林縣"},{"id":"03F2840N","name":"竹崎(竹崎連絡道) 至 梅山 路段","highway":"國道3號","direction":"北上","location":{"lat":23.558125,"lng":120.505061},"region":"嘉義縣"},{"id":"03F2899N","name":"竹崎(159縣道) 至 竹崎(竹崎連絡道) 路段","highway":"國道3號","direction":"北上","location":{"lat":23.511683,"lng":120.486328},"region":"嘉義縣"},{"id":"03F2923N","name":"中埔 至 竹崎(159縣道) 路段","highway":"國道3號","direction":"北上","location":{"lat":23.492078,"lng":120.494586},"region":"嘉義縣"},{"id":"03F2985N","name":"水上系統(連接台82) 至 中埔 路段","highway":"國道3號","direction":"北上","location":{"lat":23.442486,"lng":120.4812},"region":"嘉義縣"},{"id":"03F3101N","name":"白河 至 水上系統(連接台82) 路段","highway":"國道3號","direction":"北上","location":{"lat":23.361253,"lng":120.436356},"region":"台南市"},{"id":"03F3187N","name":"東山服務區 至 白河 路段","highway":"國道3號","direction":"北上","location":{"lat":23.296692,"lng":120.404164},"region":"台南市"},{"id":"03F3211N","name":"柳營 至 東山服務區 路段","highway":"國道3號","direction":"北上","location":{"lat":23.279281,"lng":120.390253},"region":"台南市"},{"id":"03F3259N","name":"烏山頭 至 柳營 路段","highway":"國道3號","direction":"北上","location":{"lat":23.244994,"lng":120.367378},"region":"台南市"},{"id":"03F3307N","name":"官田系統(連接台84) 至 烏山頭 路段","highway":"國道3號","direction":"北上","location":{"lat":23.203275,"lng":120.355461},"region":"台南市"},{"id":"03F3392N","name":"善化 至 官田系統(連接台84) 路段","highway":"國道3號","direction":"北上","location":{"lat":23.132064,"lng":120.333711},"region":"台南市"},{"id":"03F3445N","name":"新化系統(連接國8) 至 善化 路段","highway":"國道3號","direction":"北上","location":{"lat":23.085272,"lng":120.329033},"region":"台南市"},{"id":"03F3496N","name":"關廟(連接台86) 至 新化系統(連接國8) 路段","highway":"國道3號","direction":"北上","location":{"lat":23.040203,"lng":120.325172},"region":"台南市"},{"id":"03F3588N","name":"關廟服務區 至 關廟(連接台86) 路段","highway":"國道3號","direction":"北上","location":{"lat":22.969758,"lng":120.340164},"region":"台南市"},{"id":"03F3670N","name":"田寮 至 關廟服務區 路段","highway":"國道3號","direction":"北上","location":{"lat":22.901969,"lng":120.354767},"region":"高雄市"},{"id":"03F3743N","name":"燕巢系統(連接國10) 至 田寮 路段","highway":"國道3號","direction":"北上","location":{"lat":22.845122,"lng":120.385428},"region":"高雄市"},{"id":"03F3854N","name":"九如 至 燕巢系統(連接國10) 路段","highway":"國道3號","direction":"北上","location":{"lat":22.769197,"lng":120.441839},"region":"高雄市"},{"id":"03F3916N","name":"長治 至 九如 路段","highway":"國道3號","direction":"北上","location":{"lat":22.749792,"lng":120.496839},"region":"屏東縣"},{"id":"03F4021N","name":"麟洛 至 長治 路段","highway":"國道3號","direction":"北上","location":{"lat":22.680347,"lng":120.563311},"region":"屏東縣"},{"id":"03F4142N","name":"竹田系統(連接台88) 至 麟洛 路段","highway":"國道3號","direction":"北上","location":{"lat":22.579586,"lng":120.526161},"region":"屏東縣"},{"id":"03F4168N","name":"崁頂 至 竹田系統(連接台88) 路段","highway":"國道3號","direction":"北上","location":{"lat":22.557408,"lng":120.524761},"region":"屏東縣"},{"id":"03F4232N","name":"南州 至 崁頂 路段","highway":"國道3號","direction":"北上","location":{"lat":22.501367,"lng":120.525775},"region":"屏東縣"},{"id":"03F4259N","name":"林邊(大鵬灣端) 至 南州 路段","highway":"國道3號","direction":"北上","location":{"lat":22.477464,"lng":120.531386},"region":"屏東縣"},{"id":"03A0015S","name":"台北端 至 萬芳(動物園、信義快) 路段","highway":"國道3號","direction":"南下","location":{"lat":25.012144,"lng":121.562128},"region":"台北市"},{"id":"03A0041S","name":"萬芳(動物園、信義快) 至 木柵(連接國3) 路段","highway":"國道3號","direction":"南下","location":{"lat":25.003864,"lng":121.586039},"region":"台北市"},{"id":"03A0015N","name":"萬芳(動物園、信義快) 至 台北端 路段","highway":"國道3號","direction":"北上","location":{"lat":25.012144,"lng":121.562128},"region":"台北市"},{"id":"03A0041N","name":"木柵(連接國3) 至 萬芳(動物園、信義快) 路段","highway":"國道3號","direction":"北上","location":{"lat":25.003864,"lng":121.586039},"region":"台北市"},{"id":"05F0000S","name":"南港系統(連接國3) 至 石碇 路段","highway":"國道5號","direction":"南下","location":{"lat":25.0350889,"lng":121.6229306},"region":"台北市"},{"id":"05F0055S","name":"石碇 至 坪林行控專用道 路段","highway":"國道5號","direction":"南下","location":{"lat":24.9964667,"lng":121.6520583},"region":"新北市"},{"id":"05F0287S","name":"坪林行控專用道 至 頭城 路段","highway":"國道5號","direction":"南下","location":{"lat":24.8425694,"lng":121.7889667},"region":"宜蘭縣"},{"id":"05F0309S","name":"頭城 至 宜蘭(四城、大福) 路段","highway":"國道5號","direction":"南下","location":{"lat":24.8237056,"lng":121.7862139},"region":"宜蘭縣"},{"id":"05FR113S","name":"宜蘭(四城、大福) 至 宜蘭(壯圍) 路段","highway":"國道5號","direction":"南下","location":{"lat":24.7339444,"lng":121.7819889},"region":"宜蘭縣"},{"id":"05F0439S","name":"宜蘭(壯圍) 至 羅東 路段","highway":"國道5號","direction":"南下","location":{"lat":24.7110278,"lng":121.7894778},"region":"宜蘭縣"},{"id":"05F0494S","name":"羅東 至 蘇澳 路段","highway":"國道5號","direction":"南下","location":{"lat":24.6625806,"lng":121.79985},"region":"宜蘭縣"},{"id":"05F0001N","name":"石碇 至 南港系統(連接國3) 路段","highway":"國道5號","direction":"北上","location":{"lat":25.0349722,"lng":121.6248611},"region":"台北市"},{"id":"05F0055N","name":"坪林行控專用道 至 石碇 路段","highway":"國道5號","direction":"北上","location":{"lat":24.9961556,"lng":121.6520972},"region":"新北市"},{"id":"05F0287N","name":"頭城 至 坪林行控專用道 路段","highway":"國道5號","direction":"北上","location":{"lat":24.8426389,"lng":121.7892861},"region":"宜蘭縣"},{"id":"05F0309N","name":"宜蘭(四城、大福) 至 頭城 路段","highway":"國道5號","direction":"北上","location":{"lat":24.8237056,"lng":121.7862139},"region":"宜蘭縣"},{"id":"05FR143N","name":"宜蘭(壯圍) 至 宜蘭(四城、大福) 路段","highway":"國道5號","direction":"北上","location":{"lat":24.7339167,"lng":121.78235},"region":"宜蘭縣"}]
